STARLINK-37107
1 68294U 26057A   26090.83335647 -.01354219  54242-3 -35998-2 0  9998
2 68294  97.2806 214.2030 0001492  85.9732  99.5384 15.94661975  2727
STARLINK-37147
1 68295U 26057B   26090.83335647 -.01367379  55268-3 -36193-2 0  9997
2 68295  97.2800 214.2039 0001441  85.5145 103.2366 15.94744251  2710
STARLINK-37142
1 68296U 26057C   26090.83335647 -.01365974  55291-3 -35731-2 0  9990
2 68296  97.2796 214.2085 0001559  78.9390 120.5925 15.94966368  2600
STARLINK-37115
1 68297U 26057D   26090.83335647 -.01381901  56447-3 -36293-2 0  9997
2 68297  97.2793 214.2059 0001389  82.4451 113.7518 15.94894037  2603
STARLINK-36355
1 68298U 26057E   26090.83335647 -.01362860  54974-3 -35928-2 0  9998
2 68298  97.2798 214.2049 0001350  86.1755 105.9574 15.94820364  2870
STARLINK-37118
1 68299U 26057F   26090.83335647 -.01376210  56149-3 -35713-2 0  9991
2 68299  97.2789 214.2111 0001295  79.4819 127.5373 15.95118638  2710
STARLINK-36875
1 68300U 26057G   26090.83335647 -.01375591  56054-3 -35854-2 0  9996
2 68300  97.2793 214.2097 0001412  75.9874 127.7401 15.95035794  2775
STARLINK-37099
1 68301U 26057H   26090.83335647 -.01385599  56900-3 -35828-2 0  9997
2 68301  97.2786 214.2134 0001330  80.9342 130.4927 15.95187070  2606
STARLINK-37007
1 68302U 26057J   26090.83335647 -.01399795  58072-3 -35918-2 0  9993
2 68302  97.2779 214.2167 0001383  91.4855 128.6649 15.95333447  2824
STARLINK-36300
1 68303U 26057K   26090.83335647 -.01389056  57203-3 -35790-2 0  9996
2 68303  97.2781 214.2148 0001451  89.2403 126.8435 15.95254360  2871
STARLINK-36849
1 68304U 26057L   26090.83335647 -.01399519  58102-3 -35749-2 0  9995
2 68304  97.2780 214.2184 0001385  82.3867 141.0634 15.95417760  2779
STARLINK-36277
1 68305U 26057M   26090.83335647 -.01398608  58131-3 -35418-2 0  9999
2 68305  97.2772 214.2211 0001347  81.2878 149.7257 15.95579763  2936
STARLINK-36307
1 68306U 26057N   26090.83335647 -.01388659  57320-3 -35313-2 0  9998
2 68306  97.2777 214.2195 0001372  89.3661 137.3369 15.95500003  2871
STARLINK-36264
1 68307U 26057P   26090.83335647 -.01410777  59120-3 -35578-2 0  9999
2 68307  97.2774 214.2233 0001387  83.3946 152.2035 15.95658902  2933
STARLINK-37138
1 68308U 26057Q   26090.83335647 -.01412404  59306-3 -35436-2 0  9998
2 68308  97.2767 214.2237 0001354  94.5721 143.9325 15.95755163  2609
STARLINK-37149
1 68309U 26057R   26090.83335647 -.01401256  58491-3 -35005-2 0  9998
2 68309  97.2763 214.2250 0001336  88.8975 153.1998 15.95834426  2719
STARLINK-37148
1 68310U 26057S   26090.83335647 -.01413702  59570-3 -34976-2 0  9994
2 68310  97.2760 214.2282 0001381  84.7004 164.8544 15.96015992  2829
STARLINK-37140
1 68311U 26057T   26090.83335647 -.01408619  59117-3 -35021-2 0  9995
2 68311  97.2764 214.2273 0001327  83.0828 162.9291 15.95924235  2972
STARLINK-36854
1 68312U 26057U   26090.83335647 -.01404310  58894-3 -34578-2 0  9997
2 68312  97.2761 214.2304 0001435  84.6692 168.3333 15.96103447  2771
STARLINK-36815
1 68313U 26057V   26090.83335647 -.01402420  58801-3 -34371-2 0  9997
2 68313  97.2762 214.2324 0001360  82.2766 174.7784 15.96189367  2774
STARLINK-37155
1 68314U 26057W   26090.83335647 -.01423773  60593-3 -34540-2 0  9991
2 68314  97.2756 214.2356 0001416  80.0170 185.4650 15.96381722  2826
